0 ATLAS 41E R/B
1 15596U 85021B   13281.84613917  .00000180  00000-0  98006-4 0  3648
2 15596 108.0561 265.0319 0031710 103.3278 316.4814 14.40874922499214
0 ATLAS 41E R/B
1 15596U 85021B   13283.02293546  .00000194  00000-0  10212-3 0  3650
2 15596 108.0561 267.4863 0031717 101.1542 300.8118 14.40876746499389
0 ATLAS 41E R/B
1 15596U 85021B   13285.87243970  .00000186  00000-0  99824-4 0  3671
2 15596 108.0560 273.4296 0031747 095.8986 321.9028 14.40878680499797
0 ATLAS 41E R/B
1 15596U 85021B   13286.98259963  .00000228  00000-0  11271-3 0  3680
2 15596 108.0560 275.7449 0031735 093.8203 320.6165 14.40879502499959
0 ATLAS 41E R/B
1 15596U 85021B   13288.52064160  .00000364  00000-0  15477-3 0  3699
2 15596 108.0562 278.9527 0031731 090.9624 018.8602 14.40881494500176
0 ATLAS 41E R/B
1 15596U 85021B   13289.83093352  .00000277  00000-0  12799-3 0  3708
2 15596 108.0564 281.6854 0031729 088.5098 335.7285 14.40882773500367
0 ATLAS 41E R/B
1 15596U 85021B   13291.07759534  .00000244  00000-0  11756-3 0  3715
2 15596 108.0566 284.2853 0031750 086.1986 322.5108 14.40883631500543
0 ATLAS 41E R/B
1 15596U 85021B   13292.48769426  .00000276  00000-0  12754-3 0  3727
2 15596 108.0569 287.2261 0031779 083.6218 077.0556 14.40884682500741
0 ATLAS 41E R/B
1 15596U 85021B   13293.85741565  .00000311  00000-0  13845-3 0  3736
2 15596 108.0569 290.0828 0031795 081.0727 342.2046 14.40885759500946
0 ATLAS 41E R/B
1 15596U 85021B   13295.10271293  .00000322  00000-0  14168-3 0  3744
2 15596 108.0570 292.6800 0031816 078.7807 321.9068 14.40887124501129
